AL MUNTHER              
1 63240U 25052AG  26068.64540749  .00017933  00000+0  65015-3 0  9992
2 63240  97.4001 323.9152 0008027 130.7043 229.4895 15.28381521 54798
STARLINK-34203          
1 64246U 25119P   26068.05716670  .00069725  00000+0  25131-2 0  9996
2 64246  43.0031 310.5368 0002626 280.0912  79.9644 15.27661500 44087
